GSAT0101 (PRN E11)      
1 37846U 11060A   24143.91360162 -.00000071  00000+0  00000+0 0  9995
2 37846  57.1277   2.2161 0003892  37.8710 322.2115  1.70476009 78240
GSAT0102 (PRN E12)      
1 37847U 11060B   24146.48110541 -.00000068  00000+0  00000+0 0  9991
2 37847  57.1288   2.1468 0003884   5.8254 175.7220  1.70475367 78290
GSAT0103 (PRN E19)      
1 38857U 12055A   24147.47217447  .00000057  00000+0  00000+0 0  9998
2 38857  55.3979 122.2018 0005794 279.8741  80.0215  1.70473529 72193
GSAT0201 (PRN E18)      
1 40128U 14050A   24146.44974877 -.00000056  00000+0  00000+0 0  9992
2 40128  49.6842 303.9767 1610815 150.3445 219.8665  1.85519355 64356
GSAT0202 (PRN E14)      
1 40129U 14050B   24149.94206616 -.00000055  00000+0  00000+0 0  9999
2 40129  49.6969 302.9131 1609636 151.2858 218.6342  1.85519978 66585
GSAT0203 (PRN E26)      
1 40544U 15017A   24147.79894973 -.00000069  00000+0  00000+0 0  9999
2 40544  56.9233   2.0479 0001641 289.6684  70.3619  1.70475793 56396
GSAT0204 (PRN E22)      
1 40545U 15017B   24147.46652697 -.00000069  00000+0  00000+0 0  9999
2 40545  56.9294   2.0723 0001106 251.5082 108.5287  1.70475522 19431
GSAT0205 (PRN E24)      
1 40889U 15045A   24148.99449293  .00000013  00000+0  00000+0 0  9994
2 40889  55.2266 242.3284 0003824  39.3375 320.7437  1.70474050 54226
GSAT0206 (PRN E30)      
1 40890U 15045B   24149.21514140  .00000012  00000+0  00000+0 0  9995
2 40890  55.2255 242.3177 0001555 357.3025   2.7495  1.70473959 54252
GSAT0209 (PRN E09)      
1 41174U 15079A   24149.97140179  .00000060  00000+0  00000+0 0  9991
2 41174  55.4177 121.8422 0005434 312.7126  47.2094  1.70474013 52006
GSAT0208 (PRN E08)      
1 41175U 15079B   24148.43138710  .00000057  00000+0  00000+0 0  9996
2 41175  55.4154 121.8822 0004760 310.3780  49.5431  1.70474052 52392
GSAT0211 (PRN E02)      
1 41549U 16030A   24150.31400464  .00000005  00000+0  00000+0 0  9990
2 41549  55.3734 242.2965 0002214 336.1909  23.8477  1.70474030 49901
GSAT0210 (PRN E01)      
1 41550U 16030B   24144.73942809  .00000010  00000+0  00000+0 0  9991
2 41550  55.3752 242.4511 0002233 266.5391  93.4747  1.70474036 49802
GSAT0207 (PRN E07)      
1 41859U 16069A   24148.50528970  .00000057  00000+0  00000+0 0  9994
2 41859  55.0821 121.8889 0005738 300.3113  59.5948  1.70474031 46604
GSAT0212 (PRN E03)      
1 41860U 16069B   24148.94619032  .00000058  00000+0  00000+0 0  9995
2 41860  55.0796 121.8732 0004256 320.8524  39.0811  1.70474231 46863
GSAT0213 (PRN E04)      
1 41861U 16069C   24150.48762562  .00000060  00000+0  00000+0 0  9998
2 41861  55.0825 121.8370 0005728 285.2929  74.6132  1.70472858 46755
GSAT0214 (PRN E05)      
1 41862U 16069D   24148.28677568  .00000057  00000+0  00000+0 0  9991
2 41862  55.0802 121.8917 0004764 288.4374  71.4732  1.70474276 46843
GSAT0215 (PRN E21)      
1 43055U 17079A   24148.18995978  .00000017  00000+0  00000+0 0  9992
2 43055  55.3512 242.1771 0001633 251.5849 108.4520  1.70474665 40184
GSAT0216 (PRN E25)      
1 43056U 17079B   24150.24140764  .00000005  00000+0  00000+0 0  9995
2 43056  55.3499 242.1207 0002888 268.4377  91.5788  1.70474802 40236
GSAT0217 (PRN E27)      
1 43057U 17079C   24148.70213179  .00000015  00000+0  00000+0 0  9996
2 43057  55.3490 242.1618 0002564 288.5037  71.5227  1.70474791 40199
GSAT0218 (PRN E31)      
1 43058U 17079D   24148.33559720  .00000016  00000+0  00000+0 0  9992
2 43058  55.3495 242.1695 0003820 264.7095  95.3015  1.70474664 40183
GSAT0221 (PRN E15)      
1 43564U 18060A   24149.40943048 -.00000071  00000+0  00000+0 0  9996
2 43564  57.3036   1.9995 0002601 315.8734  44.1505  1.70475597 36385
GSAT0222 (PRN E33)      
1 43565U 18060B   24147.86815303 -.00000068  00000+0  00000+0 0  9993
2 43565  57.3070   2.0429 0001506 258.5794 101.4519  1.70475362 36405
GSAT0219 (PRN E36)      
1 43566U 18060C   24146.33032036 -.00000067  00000+0  00000+0 0  9998
2 43566  57.3063   2.0861 0002495 330.1012  29.9366  1.70475697 36355
GSAT0220 (PRN E13)      
1 43567U 18060D   24150.07043799 -.00000072  00000+0  00000+0 0  9999
2 43567  57.3059   1.9858 0002018 337.7157  22.3190  1.70475320 36400
GSAT0223 (PRN E34)      
1 49809U 21116A   24147.28313331 -.00000068  00000+0  00000+0 0  9996
2 49809  57.2968   1.9556 0001411 120.1023  59.7258  1.70475710 15364
GSAT0224 (PRN E10)      
1 49810U 21116B   24150.03281987 -.00000072  00000+0  00000+0 0  9991
2 49810  57.2981   1.8796 0001355 105.9145  73.9616  1.70475484 15431
GSAT0225 (PRN E29)      
1 59598U 24079A   24148.35232097  .00000056  00000+0  00000+0 0  9997
2 59598  54.6788 122.1023 0021789 254.3920 106.2920  1.72327387   515
GSAT0227 (PRN E06)      
1 59600U 24079C   24149.76135178  .00000058  00000+0  00000+0 0  9991
2 59600  54.6899 122.0300 0006974 238.9956 120.9033  1.70567975   587
